TDRS 3                  
1 19548U 88091B   23008.33123278 -.00000289  00000+0  00000+0 0  9993
2 19548  13.5645 349.7397 0040206 332.2893 216.0885  1.00272743112771
HST                     
1 20580U 90037B   23008.39665488  .00003879  00000+0  21222-3 0  9994
2 20580  28.4690 249.9298 0002652  88.0245  75.0455 15.11575017597517
TDRS 5                  
1 21639U 91054B   23007.67546645  .00000092  00000+0  00000+0 0  9994
2 21639  14.2209   3.0612 0026733 349.2771 190.1065  1.00273262115111
TDRS 6                  
1 22314U 93003B   23008.16906417 -.00000287  00000+0  00000+0 0  9990
2 22314  14.1427   6.3205 0006602 137.4368 338.5169  1.00266097109786
TDRS 7                  
1 23613U 95035B   23007.72065780 -.00000191  00000+0  00000+0 0  9994
2 23613  13.8983 357.0313 0024931  50.2366  43.9086  1.00268678100652
ISS (ZARYA)             
1 25544U 98067A   23008.56335980  .00014031  00000+0  25306-3 0  9999
2 25544  51.6446  39.2159 0004881 240.5036 268.4620 15.50031167377035
LANDSAT 7               
1 25682U 99020A   23008.23691784  .00000446  00000+0  10243-3 0  9992
2 25682  97.9535  53.2926 0001353  98.4090 261.7259 14.59879015262441
TERRA                   
1 25994U 99068A   23008.48816532  .00000567  00000+0  13042-3 0  9991
2 25994  98.1158  80.6970 0001530 162.1399 286.6767 14.58966613226497
TDRS 8                  
1 26388U 00034A   23008.05791653 -.00000223  00000+0  00000+0 0  9999
2 26388  10.6895  41.1343 0019901 331.2301 204.8372  1.00263995 82570
TIMED                   
1 26998U 01055B   23008.05208054  .00001252  00000+0  13675-3 0  9996
2 26998  74.0711 231.9302 0000509 310.9969  49.1168 14.89068578143594
TDRS 9                  
1 27389U 02011A   23008.03382529 -.00000268  00000+0  00000+0 0  9993
2 27389   9.4432  58.8315 0016110 284.4860  72.4073  1.00083220 77849
AQUA                    
1 27424U 02022A   23008.50348330  .00001053  00000+0  24147-3 0  9993
2 27424  98.2711 313.6943 0000942  48.0852  43.2573 14.57562690100099
TDRS 10                 
1 27566U 02055A   23008.13820821  .00000096  00000+0  00000+0 0  9999
2 27566   8.5774  48.7997 0006124 311.0369 346.2230  1.00268360 73634
SORCE                   
1 27651U 03004A   23007.80036041  .00003055  00000+0  31934-3 0  9997
2 27651  39.9933 155.9686 0020964 111.0803 249.2230 14.90622038 83563
AURA                    
1 28376U 04026A   23007.85705392  .00001127  00000+0  26038-3 0  9991
2 28376  98.2330 313.4680 0001209  87.0452 273.0884 14.57075424982994
SWIFT                   
1 28485U 04047A   23008.18058671  .00007599  00000+0  44990-3 0  9999
2 28485  20.5581 311.6922 0010137  18.0481 342.0312 15.08030147994554
THEMIS A                
1 30580U 07004A   23008.22519660 -.00000256  00000+0 -51865-2 0  9992
2 30580  12.4093 323.0070 8355689 208.7604 295.0712  0.87834015 54925
THEMIS D                
1 30797U 07004D   23008.18775417 -.00000175  00000+0  00000+0 0  9992
2 30797   8.3743 310.7785 8306195 224.3596 295.7377  0.87835001 54457
THEMIS E                
1 30798U 07004E   23007.26805958 -.00000152  00000+0  00000+0 0  9990
2 30798   9.5743 327.3966 8303223 209.5677 357.5487  0.87859203 54864
AIM                     
1 31304U 07015A   23008.07651592  .00017906  00000+0  78858-3 0  9993
2 31304  97.8635 300.4767 0005594  46.3807 313.7891 15.21886452862267
FGRST (GLAST)           
1 33053U 08029A   23007.89239356  .00002591  00000+0  12655-3 0  9998
2 33053  25.5810 212.4776 0012066  32.0182 328.1085 15.12893791804686
WISE                    
1 36119U 09071A   23007.83602799  .00012085  00000+0  33984-3 0  9998
2 36119  97.2174  43.2880 0000820 345.1845  14.9375 15.36640128726850
TDRS 11                 
1 39070U 13004A   23008.50748763  .00000094  00000+0  00000+0 0  9991
2 39070   2.7779 352.4624 0003387  45.6102  78.0844  1.00266439 36391
TDRS 12                 
1 39504U 14004A   23007.81676858 -.00000254  00000+0  00000+0 0  9991
2 39504   3.7068 351.2139 0001260 213.9863 154.7097  1.00279600 31688
GPM-CORE                
1 39574U 14009C   23008.53711283  .00014401  00000+0  20770-3 0  9993
2 39574  64.9964 210.2554 0009934 267.5885  92.4124 15.56175713503521
MMS 1                   
1 40482U 15011A   23006.21748594 -.00001695  00000+0  00000+0 0  9997
2 40482  29.5179  87.3761 8935517  72.2703 352.1287  0.28519464 13870
MMS 2                   
1 40483U 15011B   23006.21748581 -.00001695  00000+0  00000+0 0  9994
2 40483  29.5104  87.3755 8934746  72.2640 352.1106  0.28524905 13938
MMS 3                   
1 40484U 15011C   23003.58255836 -.00001547  00000+0  00000+0 0  9994
2 40484  29.5242  87.5628 8928397  72.0347  81.7243  0.28516585 13842
MMS 4                   
1 40485U 15011D   23003.67005836 -.00001558  00000+0  00000+0 0  9990
2 40485  29.5228  87.5723 8929459  72.0308  90.6924  0.28518308 13828
TDRS 13                 
1 42915U 17047A   23007.82260861 -.00000084  00000+0  00000+0 0  9996
2 42915   4.2001 335.6790 0012866 111.2349 304.7472  1.00271003 19750
JPSS-1                  
1 43013U 17073A   23008.54470491  .00000087  00000+0  62173-4 0  9993
2 43013  98.7385 309.0662 0001197 113.2248 246.9054 14.19542372266325
